CCSDS_OMM_VERS = 2.0
CREATION_DATE  = 
ORIGINATOR     = 

OBJECT_NAME    = ELECTRON R/B
OBJECT_ID      = 2025-252B
CENTER_NAME    = EARTH
REF_FRAME      = TEME
TIME_SYSTEM    = UTC
MEAN_ELEMENT_THEORY = SGP/SGP4

EPOCH          = 2025-11-26T22:16:14.905920
MEAN_MOTION    = 15.85712212
ECCENTRICITY   = .01495988
INCLINATION    = 41.9910
RA_OF_ASC_NODE = 148.7419
ARG_OF_PERICENTER = 25.0020
MEAN_ANOMALY   = 335.7990

EPHEMERIS_TYPE = 0
CLASSIFICATION_TYPE = U
NORAD_CAT_ID   = 66317
ELEMENT_SET_NO = 999
REV_AT_EPOCH   = 331
BSTAR          = .18632312E-2
MEAN_MOTION_DOT = .1217427E-1
MEAN_MOTION_DDOT = .7727678E-5

CCSDS_OMM_VERS = 2.0
CREATION_DATE  = 
ORIGINATOR     = 

OBJECT_NAME    = ELECTRON KICK STAGE R/B
OBJECT_ID      = 2025-252C
CENTER_NAME    = EARTH
REF_FRAME      = TEME
TIME_SYSTEM    = UTC
MEAN_ELEMENT_THEORY = SGP/SGP4

EPOCH          = 2025-11-26T12:49:37.519392
MEAN_MOTION    = 16.00077308
ECCENTRICITY   = .0113597
INCLINATION    = 41.9774
RA_OF_ASC_NODE = 150.0982
ARG_OF_PERICENTER = 176.7091
MEAN_ANOMALY   = 183.4541

EPHEMERIS_TYPE = 0
CLASSIFICATION_TYPE = U
NORAD_CAT_ID   = 66318
ELEMENT_SET_NO = 999
REV_AT_EPOCH   = 326
BSTAR          = .17388E-2
MEAN_MOTION_DOT = .2041202E-1
MEAN_MOTION_DDOT = .7724E-5

CCSDS_OMM_VERS = 2.0
CREATION_DATE  = 
ORIGINATOR     = 

OBJECT_NAME    = STARLINK-35442
OBJECT_ID      = 2025-253A
CENTER_NAME    = EARTH
REF_FRAME      = TEME
TIME_SYSTEM    = UTC
MEAN_ELEMENT_THEORY = SGP/SGP4

EPOCH          = 2025-11-26T22:00:05.999904
MEAN_MOTION    = 15.50936630
ECCENTRICITY   = .00014464
INCLINATION    = 43.0000
RA_OF_ASC_NODE = 77.2821
ARG_OF_PERICENTER = 273.3426
MEAN_ANOMALY   = 185.3909

EPHEMERIS_TYPE = 0
CLASSIFICATION_TYPE = U
NORAD_CAT_ID   = 66319
ELEMENT_SET_NO = 999
REV_AT_EPOCH   = 448
BSTAR          = -.11168497E-1
MEAN_MOTION_DOT = -.614347E-2
MEAN_MOTION_DDOT = 0

CCSDS_OMM_VERS = 2.0
CREATION_DATE  = 
ORIGINATOR     = 

OBJECT_NAME    = STARLINK-34616
OBJECT_ID      = 2025-253B
CENTER_NAME    = EARTH
REF_FRAME      = TEME
TIME_SYSTEM    = UTC
MEAN_ELEMENT_THEORY = SGP/SGP4

EPOCH          = 2025-11-26T22:00:05.999904
MEAN_MOTION    = 15.51070296
ECCENTRICITY   = .0002048
INCLINATION    = 42.9999
RA_OF_ASC_NODE = 77.2764
ARG_OF_PERICENTER = 276.0210
MEAN_ANOMALY   = 184.5388

EPHEMERIS_TYPE = 0
CLASSIFICATION_TYPE = U
NORAD_CAT_ID   = 66320
ELEMENT_SET_NO = 999
REV_AT_EPOCH   = 459
BSTAR          = -.13413076E-1
MEAN_MOTION_DOT = -.740087E-2
MEAN_MOTION_DDOT = 0

CCSDS_OMM_VERS = 2.0
CREATION_DATE  = 
ORIGINATOR     = 

OBJECT_NAME    = STARLINK-34615
OBJECT_ID      = 2025-253C
CENTER_NAME    = EARTH
REF_FRAME      = TEME
TIME_SYSTEM    = UTC
MEAN_ELEMENT_THEORY = SGP/SGP4

EPOCH          = 2025-11-26T22:00:05.999904
MEAN_MOTION    = 15.62386524
ECCENTRICITY   = .00028874
INCLINATION    = 42.9994
RA_OF_ASC_NODE = 77.1721
ARG_OF_PERICENTER = 330.1934
MEAN_ANOMALY   = 172.7136

EPHEMERIS_TYPE = 0
CLASSIFICATION_TYPE = U
NORAD_CAT_ID   = 66321
ELEMENT_SET_NO = 999
REV_AT_EPOCH   = 443
BSTAR          = .21737659E-2
MEAN_MOTION_DOT = .202702E-2
MEAN_MOTION_DDOT = 0

CCSDS_OMM_VERS = 2.0
CREATION_DATE  = 
ORIGINATOR     = 

OBJECT_NAME    = STARLINK-35292
OBJECT_ID      = 2025-253D
CENTER_NAME    = EARTH
REF_FRAME      = TEME
TIME_SYSTEM    = UTC
MEAN_ELEMENT_THEORY = SGP/SGP4

EPOCH          = 2025-11-26T22:00:05.999904
MEAN_MOTION    = 15.50934198
ECCENTRICITY   = .00014648
INCLINATION    = 43.0001
RA_OF_ASC_NODE = 77.2526
ARG_OF_PERICENTER = 275.0276
MEAN_ANOMALY   = 195.2095

EPHEMERIS_TYPE = 0
CLASSIFICATION_TYPE = U
NORAD_CAT_ID   = 66322
ELEMENT_SET_NO = 999
REV_AT_EPOCH   = 438
BSTAR          = -.111855E-1
MEAN_MOTION_DOT = -.615167E-2
MEAN_MOTION_DDOT = 0

CCSDS_OMM_VERS = 2.0
CREATION_DATE  = 
ORIGINATOR     = 

OBJECT_NAME    = STARLINK-35309
OBJECT_ID      = 2025-253E
CENTER_NAME    = EARTH
REF_FRAME      = TEME
TIME_SYSTEM    = UTC
MEAN_ELEMENT_THEORY = SGP/SGP4

EPOCH          = 2025-11-26T22:00:05.999904
MEAN_MOTION    = 15.50944696
ECCENTRICITY   = .00014643
INCLINATION    = 42.9999
RA_OF_ASC_NODE = 77.2392
ARG_OF_PERICENTER = 274.7523
MEAN_ANOMALY   = 201.2301

EPHEMERIS_TYPE = 0
CLASSIFICATION_TYPE = U
NORAD_CAT_ID   = 66323
ELEMENT_SET_NO = 999
REV_AT_EPOCH   = 438
BSTAR          = -.11491443E-1
MEAN_MOTION_DOT = -.630955E-2
MEAN_MOTION_DDOT = 0

CCSDS_OMM_VERS = 2.0
CREATION_DATE  = 
ORIGINATOR     = 

OBJECT_NAME    = STARLINK-35506
OBJECT_ID      = 2025-253F
CENTER_NAME    = EARTH
REF_FRAME      = TEME
TIME_SYSTEM    = UTC
MEAN_ELEMENT_THEORY = SGP/SGP4

EPOCH          = 2025-11-26T22:00:05.999904
MEAN_MOTION    = 15.51072268
ECCENTRICITY   = .00020038
INCLINATION    = 42.9999
RA_OF_ASC_NODE = 77.2577
ARG_OF_PERICENTER = 274.2108
MEAN_ANOMALY   = 194.0160

EPHEMERIS_TYPE = 0
CLASSIFICATION_TYPE = U
NORAD_CAT_ID   = 66324
ELEMENT_SET_NO = 999
REV_AT_EPOCH   = 448
BSTAR          = -.13453672E-1
MEAN_MOTION_DOT = -.7422E-2
MEAN_MOTION_DDOT = 0

CCSDS_OMM_VERS = 2.0
CREATION_DATE  = 
ORIGINATOR     = 

OBJECT_NAME    = STARLINK-35504
OBJECT_ID      = 2025-253G
CENTER_NAME    = EARTH
REF_FRAME      = TEME
TIME_SYSTEM    = UTC
MEAN_ELEMENT_THEORY = SGP/SGP4

EPOCH          = 2025-11-26T22:00:05.999904
MEAN_MOTION    = 15.50957136
ECCENTRICITY   = .00015162
INCLINATION    = 43.0000
RA_OF_ASC_NODE = 77.2482
ARG_OF_PERICENTER = 277.0240
MEAN_ANOMALY   = 195.1169

EPHEMERIS_TYPE = 0
CLASSIFICATION_TYPE = U
NORAD_CAT_ID   = 66325
ELEMENT_SET_NO = 999
REV_AT_EPOCH   = 438
BSTAR          = -.11758986E-1
MEAN_MOTION_DOT = -.644797E-2
MEAN_MOTION_DDOT = 0

CCSDS_OMM_VERS = 2.0
CREATION_DATE  = 
ORIGINATOR     = 

OBJECT_NAME    = STARLINK-35479
OBJECT_ID      = 2025-253H
CENTER_NAME    = EARTH
REF_FRAME      = TEME
TIME_SYSTEM    = UTC
MEAN_ELEMENT_THEORY = SGP/SGP4

EPOCH          = 2025-11-26T22:00:05.999904
MEAN_MOTION    = 15.50943292
ECCENTRICITY   = .00014712
INCLINATION    = 43.0000
RA_OF_ASC_NODE = 77.2329
ARG_OF_PERICENTER = 272.9067
MEAN_ANOMALY   = 204.9949

EPHEMERIS_TYPE = 0
CLASSIFICATION_TYPE = U
NORAD_CAT_ID   = 66326
ELEMENT_SET_NO = 999
REV_AT_EPOCH   = 448
BSTAR          = -.11517189E-1
MEAN_MOTION_DOT = -.632234E-2
MEAN_MOTION_DDOT = 0

CCSDS_OMM_VERS = 2.0
CREATION_DATE  = 
ORIGINATOR     = 

OBJECT_NAME    = STARLINK-35507
OBJECT_ID      = 2025-253J
CENTER_NAME    = EARTH
REF_FRAME      = TEME
TIME_SYSTEM    = UTC
MEAN_ELEMENT_THEORY = SGP/SGP4

EPOCH          = 2025-11-26T22:00:05.999904
MEAN_MOTION    = 15.51071269
ECCENTRICITY   = .00019946
INCLINATION    = 43.0000
RA_OF_ASC_NODE = 77.2629
ARG_OF_PERICENTER = 273.8811
MEAN_ANOMALY   = 192.4301

EPHEMERIS_TYPE = 0
CLASSIFICATION_TYPE = U
NORAD_CAT_ID   = 66327
ELEMENT_SET_NO = 999
REV_AT_EPOCH   = 448
BSTAR          = -.13439117E-1
MEAN_MOTION_DOT = -.741431E-2
MEAN_MOTION_DDOT = 0

CCSDS_OMM_VERS = 2.0
CREATION_DATE  = 
ORIGINATOR     = 

OBJECT_NAME    = STARLINK-35460
OBJECT_ID      = 2025-253K
CENTER_NAME    = EARTH
REF_FRAME      = TEME
TIME_SYSTEM    = UTC
MEAN_ELEMENT_THEORY = SGP/SGP4

EPOCH          = 2025-11-26T22:00:05.999904
MEAN_MOTION    = 15.50940047
ECCENTRICITY   = .00014436
INCLINATION    = 42.9999
RA_OF_ASC_NODE = 77.2178
ARG_OF_PERICENTER = 275.2756
MEAN_ANOMALY   = 208.3781

EPHEMERIS_TYPE = 0
CLASSIFICATION_TYPE = U
NORAD_CAT_ID   = 66328
ELEMENT_SET_NO = 999
REV_AT_EPOCH   = 448
BSTAR          = -.11458927E-1
MEAN_MOTION_DOT = -.629202E-2
MEAN_MOTION_DDOT = 0

CCSDS_OMM_VERS = 2.0
CREATION_DATE  = 
ORIGINATOR     = 

OBJECT_NAME    = STARLINK-35505
OBJECT_ID      = 2025-253L
CENTER_NAME    = EARTH
REF_FRAME      = TEME
TIME_SYSTEM    = UTC
MEAN_ELEMENT_THEORY = SGP/SGP4

EPOCH          = 2025-11-26T22:00:05.999904
MEAN_MOTION    = 15.50944027
ECCENTRICITY   = .00014494
INCLINATION    = 43.0003
RA_OF_ASC_NODE = 77.2683
ARG_OF_PERICENTER = 272.8047
MEAN_ANOMALY   = 191.6780

EPHEMERIS_TYPE = 0
CLASSIFICATION_TYPE = U
NORAD_CAT_ID   = 66329
ELEMENT_SET_NO = 999
REV_AT_EPOCH   = 438
BSTAR          = -.11468189E-1
MEAN_MOTION_DOT = -.629757E-2
MEAN_MOTION_DDOT = 0

CCSDS_OMM_VERS = 2.0
CREATION_DATE  = 
ORIGINATOR     = 

OBJECT_NAME    = STARLINK-35512
OBJECT_ID      = 2025-253M
CENTER_NAME    = EARTH
REF_FRAME      = TEME
TIME_SYSTEM    = UTC
MEAN_ELEMENT_THEORY = SGP/SGP4

EPOCH          = 2025-11-26T22:00:05.999904
MEAN_MOTION    = 15.50941610
ECCENTRICITY   = .00015384
INCLINATION    = 43.0000
RA_OF_ASC_NODE = 77.2431
ARG_OF_PERICENTER = 281.6969
MEAN_ANOMALY   = 192.3721

EPHEMERIS_TYPE = 0
CLASSIFICATION_TYPE = U
NORAD_CAT_ID   = 66330
ELEMENT_SET_NO = 999
REV_AT_EPOCH   = 438
BSTAR          = -.11462106E-1
MEAN_MOTION_DOT = -.62941E-2
MEAN_MOTION_DDOT = 0

CCSDS_OMM_VERS = 2.0
CREATION_DATE  = 
ORIGINATOR     = 

OBJECT_NAME    = STARLINK-35257
OBJECT_ID      = 2025-253N
CENTER_NAME    = EARTH
REF_FRAME      = TEME
TIME_SYSTEM    = UTC
MEAN_ELEMENT_THEORY = SGP/SGP4

EPOCH          = 2025-11-26T22:00:05.999904
MEAN_MOTION    = 15.51065900
ECCENTRICITY   = .0002005
INCLINATION    = 43.0000
RA_OF_ASC_NODE = 77.2045
ARG_OF_PERICENTER = 276.3458
MEAN_ANOMALY   = 212.9679

EPHEMERIS_TYPE = 0
CLASSIFICATION_TYPE = U
NORAD_CAT_ID   = 66331
ELEMENT_SET_NO = 999
REV_AT_EPOCH   = 411
BSTAR          = -.13239061E-1
MEAN_MOTION_DOT = -.731076E-2
MEAN_MOTION_DDOT = 0

